E-ST@R-II               
1 41459U 16025D   22057.71041829  .00005993  00000+0  28036-3 0  9992
2 41459  98.1703 214.9945 0152552 284.7131  73.7276 15.10398543320762
AAUSAT 4                
1 41460U 16025E   22057.87299125  .00011177  00000+0  48098-3 0  9996
2 41460  98.1667 220.4876 0136843 263.3497  95.2134 15.14651159321178
BEESAT-4                
1 41619U 16040W   22057.67787142  .00006746  00000+0  24966-3 0  9992
2 41619  97.2353 111.4346 0011073 144.2910 215.9073 15.27935724303799
CANX-7                  
1 41788U 16059F   22057.26241762  .00161591  00000+0  10277-1 0  9995
2 41788  98.2224 179.4891 0007668 112.0205 305.8455 15.07990684291735
RAVAN                   
1 41849U 16067B   22057.79773081  .00002126  00000+0  17650-3 0  9996
2 41849  97.9939 191.7206 0011447 352.2587   7.8457 14.99863197289400
CELTEE 1                
1 41850U 16067C   22057.30957467  .00001875  00000+0  16439-3 0  9991
2 41850  97.9802 186.7334 0008373 359.7472   0.3744 14.97897343289119
OPTICUBE 04             
1 41851U 16067D   22057.31370583  .00000987  00000+0  90183-4 0  9993
2 41851  97.9787 185.9174 0008761   1.6864 358.4385 14.97408334289075
AEROCUBE 8D             
1 41852U 16067E   22057.35540980  .00001584  00000+0  14037-3 0  9995
2 41852  97.9765 185.8970 0008978 357.1803   2.9366 14.97707973289067
AEROCUBE 8C             
1 41853U 16067F   22057.33418460  .00000921  00000+0  83909-4 0  9990
2 41853  97.9763 185.7135 0009886 356.9925   3.1235 14.97678147289056
PROMETHEUS 2-1          
1 41854U 16067G   22057.57417230  .00003147  00000+0  26845-3 0  9999
2 41854  97.9780 186.8399 0009595 359.8627   0.2590 14.98453514289139
PROMETHEUS 2-3          
1 41855U 16067H   22057.83559425  .00002925  00000+0  24974-3 0  9996
2 41855  97.9775 187.1768 0009508 358.0924   2.0260 14.98470640289170
INS-1B                  
1 41954U 17008G   22057.12137855  .00006724  00000+0  24499-3 0  9996
2 41954  97.2746 119.4752 0006733 272.1023  87.9446 15.28489926279724
BGUSAT                  
1 41999U 17008BD  22057.49683497  .00011847  00000+0  35811-3 0  9995
2 41999  97.2958 128.7916 0005107 262.7787  97.2875 15.34362453279596
DIDO-2                  
1 42000U 17008BE  22057.46568365  .00004294  00000+0  16555-3 0  9994
2 42000  97.2738 119.6065 0006384 298.5767  61.4830 15.26830237279127
PEASSS                  
1 42015U 17008BV  22057.16771755  .00005668  00000+0  20405-3 0  9991
2 42015  97.2793 122.6073 0004334 297.3423  62.7375 15.28965189279750
AL-FARABI 1             
1 42016U 17008BW  22057.42451410  .00007552  00000+0  25574-3 0  9990
2 42016  97.2853 125.3805 0004017 289.7030  70.3778 15.30857840280041
NAYIF-1 (EO-88)         
1 42017U 17008BX  22057.12038796  .00008012  00000+0  27049-3 0  9997
2 42017  97.2842 125.0882 0004068 290.0358  70.0446 15.30933695280026
UCLSAT                  
1 42765U 17036A   22057.67321762  .00006334  00000+0  24145-3 0  9995
2 42765  97.2159 103.9350 0010083   8.0094 352.1305 15.26989154260347
LITUANICASAT-2          
1 42768U 17036D   22057.54241362  .00011132  00000+0  38378-3 0  9996
2 42768  97.2246 105.6595 0011639 351.4010   8.7030 15.30099342260264
AALTO-1                 
1 42775U 17036L   22057.39412931  .00003882  00000+0  16289-3 0  9999
2 42775  97.2150  99.3278 0013088   7.3168 352.8258 15.23972343259855
URSA MAIOR              
1 42776U 17036M   22057.54053356  .00004178  00000+0  17305-3 0  9998
2 42776  97.2164 100.1004 0012752   5.9155 354.2231 15.24373087259900
COMPASS 2               
1 42777U 17036N   22057.67068616  .00008155  00000+0  29532-3 0  9992
2 42777  97.2230 105.5401 0010279 355.2077   4.9063 15.28595437260207
DIAMOND RED             
1 42783U 17036U   22057.79512155  .00004818  00000+0  19284-3 0  9999
2 42783  97.2172 102.4664 0011288  11.9391 348.2113 15.25467351260066
PEGASUS                 
1 42784U 17036V   22057.67179744  .00005768  00000+0  22430-3 0  9992
2 42784  97.2172 103.3012 0010904  10.0799 350.0656 15.26353913260107
DIAMOND GREEN           
1 42785U 17036W   22057.07243452  .00004768  00000+0  19089-3 0  9990
2 42785  97.2179 101.8286 0011225  15.2743 344.8832 15.25465605260023
DIAMOND BLUE            
1 42786U 17036X   22057.59640904  .00004970  00000+0  19886-3 0  9991
2 42786  97.2178 102.3259 0011140  13.9082 346.2461 15.25468107260020
NUDTSAT                 
1 42787U 17036Y   22057.61096228  .00010447  00000+0  36794-3 0  9992
2 42787  97.2210 106.6555 0009724   0.3218 359.8026 15.29438561260134
SUCHAI                  
1 42788U 17036Z   22057.11883995  .00006518  00000+0  24417-3 0  9996
2 42788  97.2183 104.1448 0010248   7.9797 352.1603 15.27555410260178
SKCUBE                  
1 42789U 17036AA  22057.07253825  .00006346  00000+0  24109-3 0  9992
2 42789  97.2179 103.6686 0010249   9.0529 351.0893 15.27101074260069
VZLUSAT-1               
1 42790U 17036AB  22057.54657413  .00008911  00000+0  31497-3 0  9995
2 42790  97.2209 106.5751 0009040   1.4456 358.6809 15.29372542260277
ROBUSTA-1B              
1 42792U 17036AD  22057.64965011  .00006208  00000+0  23331-3 0  9999
2 42792  97.2177 104.7192 0009747   7.4690 352.6693 15.27473473260191
CICERO 6                
1 42793U 17036AE  22057.35548763  .00003956  00000+0  15863-3 0  9997
2 42793  97.2156 102.6241 0009729  14.7211 345.4309 15.25528609260128
CORVUS BC2              
1 42846U 17042X   22057.54295328  .00000531  00000+0  56713-4 0  9996
2 42846  97.4388 281.0419 0009945  17.5904 342.5658 14.92572944251731
CORVUS BC1              
1 42847U 17042Y   22057.56418514  .00000946  00000+0  96755-4 0  9993
2 42847  97.4391 281.3476 0009580  16.6899 343.4634 14.92672443251740
MIRATA                  
1 43015U 17073C   22057.71132128  .00003153  00000+0  23857-3 0  9991
2 43015  97.6864 317.1961 0244121 184.3721 175.5364 14.82307108230856
MAKERSAT 0              
1 43016U 17073D   22057.70156725  .00002269  00000+0  17544-3 0  9993
2 43016  97.6890 316.9740 0249442 187.8563 171.8713 14.81091946230789
AEROCUBE 7B (OCSD B)    
1 43042U 17071F   22057.54516254  .00034768  00000+0  45182-3 0  9997
2 43042  51.6333 247.1128 0003381 192.6340 167.4568 15.58452871238298
AEROCUBE 7C (OCSD C)    
1 43043U 17071G   22057.55938648  .00032504  00000+0  43240-3 0  9993
2 43043  51.6327 247.9294 0003600 192.9940 167.0960 15.57862068238257
ASGARDIA 1              
1 43049U 17071N   22057.82842355  .00028122  00000+0  39025-3 0  9995
2 43049  51.6342 246.9071 0002325 214.3602 145.7240 15.56807475238286
ISARA                   
1 43050U 17071P   22049.68329955  .10127310  12389-4  84600-3 0  9995
2 43050  51.6069 226.6971 0007833 281.4911  78.5235 16.38724404237833
PROPCUBE 2 (FAUNA)      
1 43052U 17071R   22057.50489635  .00035541  00000+0  44969-3 0  9998
2 43052  51.6314 242.4589 0002412 222.2707 137.8100 15.59153673238313
CORVUS BC3              
1 43118U 18004H   22057.78048269  .00003752  00000+0  15021-3 0  9998
2 43118  97.3750 132.0021 0010528  41.3047 318.8986 15.25631489229330
MICROMAS-2A             
1 43131U 18004W   22057.16025294  .00011553  00000+0  38840-3 0  9990
2 43131  97.3859 136.6024 0007906  32.4389 327.7337 15.30948373229523
SPACEBEE-4              
1 43139U 18004AE  22057.47403448  .00016424  00000+0  48167-3 0  9998
2 43139  97.3945 140.6723 0006546  25.5815 334.5751 15.35236168229774
SPACEBEE-3              
1 43140U 18004AF  22057.23149741  .00024838  00000+0  64006-3 0  9995
2 43140  97.3988 143.0098 0005340  16.9751 343.1672 15.39179845229881
SPACEBEE-2              
1 43141U 18004AG  22057.22184324  .00028780  00000+0  70571-3 0  9995
2 43141  97.4011 143.9948 0004667  13.2499 346.8869 15.40671181229939
SPACEBEE-1              
1 43142U 18004AH  22057.79739500  .00031303  00000+0  72000-3 0  9994
2 43142  97.4027 145.6241 0004421   1.4626 358.6634 15.42586928230075
CICERO 7                
1 43143U 18004AJ  22057.21475600  .00006928  00000+0  23985-3 0  9993
2 43143  97.3835 136.5111 0006984  45.5319 314.6492 15.30160993229542
GOMX-4B                 
1 43196U 18015E   22057.68775801  .00002860  00000+0  11442-3 0  9996
2 43196  97.5141 196.2889 0019379  86.9630 273.3825 15.25754847226262
GOMX-4A                 
1 43197U 18015F   22057.85266311  .00004827  00000+0  18455-3 0  9993
2 43197  97.5140 197.0002 0019115  86.8333  65.3156 15.26917039226334
AEROCUBE 12A            
1 43556U 18046C   22057.45063213  .00010871  00000+0  32625-3 0  9999
2 43556  51.6399   3.1358 0006649   6.2145 353.8918 15.34951082202246
AEROCUBE 12B            
1 43557U 18046D   22057.28220610  .00008472  00000+0  26588-3 0  9992
2 43557  51.6398   7.2048 0006952   3.4244 356.6785 15.33837823202128
SURFSAT                 
1 43614U 18070B   22057.79318534  .00016372  00000+0  32142-3 0  9993
2 43614  93.0215  52.1044 0016082  93.7044 266.6054 15.47140361193914
CP7 (DAVE)              
1 43615U 18070C   22057.74302093  .00015192  00000+0  30395-3 0  9999
2 43615  93.0221  51.9927 0016277  94.3060 266.0058 15.46592110193886
ELFIN-B                 
1 43616U 18070D   22057.73104716  .00026010  00000+0  41926-3 0  9994
2 43616  93.0152  52.6679 0015518  88.8748 271.4292 15.52710571194106
ELFIN-A                 
1 43617U 18070E   22057.51594737  .00028139  00000+0  43840-3 0  9998
2 43617  93.0220  53.7117 0014736  86.8898 273.4049 15.53660836194108
CUBEBEL-1 (BSUSAT-1)    
1 43666U 18083E   22057.83422597  .00005914  00000+0  26867-3 0  9991
2 43666  97.4341  87.8781 0014167   7.9928 163.8719 15.21057638184655
CICERO 10               
1 43690U 18088A   22057.45473293  .00004793  00000+0  20296-3 0  9994
2 43690  85.0376  29.8845 0013527 185.2548 174.8554 15.22807843182858
IRVINE01                
1 43693U 18088D   22057.36581831  .00015100  00000+0  51071-3 0  9994
2 43693  85.0329  25.6811 0015858 152.4990 207.7099 15.30373004183196
